0 BREEZE-M DEB (TANK)
1 33597U 09007C   13281.32112480  .00000549  00000-0  12603-2 0  3423
2 33597 044.9632 005.4813 7223507 168.5170 229.4837 02.29198457 38825
0 BREEZE-M DEB (TANK)
1 33597U 09007C   13282.34426241  .00000552  00000-0  13032-2 0  3431
2 33597 044.9652 005.1857 7223383 168.8318 353.6808 02.29201797 38854
0 BREEZE-M DEB (TANK)
1 33597U 09007C   13283.49740558  .00001318  00000-0  23047-2 0  3458
2 33597 044.9877 004.8568 7223526 169.1867 225.1595 02.29201539 38883
0 BREEZE-M DEB (TANK)
1 33597U 09007C   13283.65437580  .00000547  00000-0  13475-2 0  3440
2 33597 044.9676 004.8075 7223269 169.2345 354.6809 02.29203842 38884
0 BREEZE-M DEB (TANK)
1 33597U 09007C   13286.48662885  .00000485  00000-0  12803-2 0  3469
2 33597 044.9726 003.9910 7223039 170.1045 171.6602 02.29208844 38943
0 BREEZE-M DEB (TANK)
1 33597U 09007C   13287.68057905  .00000548  00000-0  13657-2 0  3472
2 33597 044.9747 003.6468 7222901 170.4721 076.8322 02.29211824 38972
0 BREEZE-M DEB (TANK)
1 33597U 09007C   13289.32458828  .00000399  00000-0  10418-2 0  3481
2 33597 044.9770 003.1737 7222694 170.9771 353.3864 02.29215681 39016
0 BREEZE-M DEB (TANK)
1 33597U 09007C   13290.63229832  .00000423  00000-0  10448-2 0  3490
2 33597 044.9787 002.7974 7222513 171.3781 352.4615 02.29217097 39048
0 BREEZE-M DEB (TANK)
1 33597U 09007C   13291.76283766  .00000381  00000-0  95352-3 0  3504
2 33597 044.9799 002.4726 7222377 171.7235 205.3472 02.29218674 39060
0 BREEZE-M DEB (TANK)
1 33597U 09007C   13293.08237134  .00000311  00000-0  83930-3 0  3512
2 33597 044.9817 002.0933 7222219 172.1260 214.1973 02.29219864 39094
0 BREEZE-M DEB (TANK)
1 33597U 09007C   13294.63087878  .00000293  00000-0  84921-3 0  3523
2 33597 044.9835 001.6482 7222084 172.5989 052.0013 02.29221695 39134
